<?xml version="1.0" encoding="UTF-8"?>
<ndm xmlns:xsi="http://www.w3.org/2001/XMLSchema-instance" xsi:noNamespaceSchemaLocation="https://sanaregistry.org/r/ndmxml_unqualified/ndmxml-2.0.0-master-2.0.xsd">
<omm id="CCSDS_OMM_VERS" version="2.0">
<header><CREATION_DATE/><ORIGINATOR/></header><body><segment><metadata><OBJECT_NAME>KUIPER-00027</OBJECT_NAME><OBJECT_ID>2025-088S</OBJECT_ID><CENTER_NAME>EARTH</CENTER_NAME><REF_FRAME>TEME</REF_FRAME><TIME_SYSTEM>UTC</TIME_SYSTEM><MEAN_ELEMENT_THEORY>SGP4</MEAN_ELEMENT_THEORY></metadata><data><meanElements><EPOCH>2025-07-23T20:21:11.910528</EPOCH><MEAN_MOTION>15.38067557</MEAN_MOTION><ECCENTRICITY>.000191</ECCENTRICITY><INCLINATION>51.8716</INCLINATION><RA_OF_ASC_NODE>42.7712</RA_OF_ASC_NODE><ARG_OF_PERICENTER>81.0597</ARG_OF_PERICENTER><MEAN_ANOMALY>279.0607</MEAN_ANOMALY></meanElements><tleParameters><EPHEMERIS_TYPE>0</EPHEMERIS_TYPE><CLASSIFICATION_TYPE>U</CLASSIFICATION_TYPE><NORAD_CAT_ID>63740</NORAD_CAT_ID><ELEMENT_SET_NO>999</ELEMENT_SET_NO><REV_AT_EPOCH>1351</REV_AT_EPOCH><BSTAR>.41669E-4</BSTAR><MEAN_MOTION_DOT>.1192E-4</MEAN_MOTION_DOT><MEAN_MOTION_DDOT>0</MEAN_MOTION_DDOT></tleParameters></data></segment></body></omm>
<omm id="CCSDS_OMM_VERS" version="2.0">
<header><CREATION_DATE/><ORIGINATOR/></header><body><segment><metadata><OBJECT_NAME>KUIPER-00028</OBJECT_NAME><OBJECT_ID>2025-088T</OBJECT_ID><CENTER_NAME>EARTH</CENTER_NAME><REF_FRAME>TEME</REF_FRAME><TIME_SYSTEM>UTC</TIME_SYSTEM><MEAN_ELEMENT_THEORY>SGP4</MEAN_ELEMENT_THEORY></metadata><data><meanElements><EPOCH>2025-07-23T20:08:47.830272</EPOCH><MEAN_MOTION>15.38197726</MEAN_MOTION><ECCENTRICITY>.0001794</ECCENTRICITY><INCLINATION>51.8702</INCLINATION><RA_OF_ASC_NODE>42.7113</RA_OF_ASC_NODE><ARG_OF_PERICENTER>69.4368</ARG_OF_PERICENTER><MEAN_ANOMALY>290.6811</MEAN_ANOMALY></meanElements><tleParameters><EPHEMERIS_TYPE>0</EPHEMERIS_TYPE><CLASSIFICATION_TYPE>U</CLASSIFICATION_TYPE><NORAD_CAT_ID>63741</NORAD_CAT_ID><ELEMENT_SET_NO>999</ELEMENT_SET_NO><REV_AT_EPOCH>1392</REV_AT_EPOCH><BSTAR>.50931E-3</BSTAR><MEAN_MOTION_DOT>.19119E-3</MEAN_MOTION_DOT><MEAN_MOTION_DDOT>0</MEAN_MOTION_DDOT></tleParameters></data></segment></body></omm>
<omm id="CCSDS_OMM_VERS" version="2.0">
<header><CREATION_DATE/><ORIGINATOR/></header><body><segment><metadata><OBJECT_NAME>KUIPER-00029</OBJECT_NAME><OBJECT_ID>2025-088U</OBJECT_ID><CENTER_NAME>EARTH</CENTER_NAME><REF_FRAME>TEME</REF_FRAME><TIME_SYSTEM>UTC</TIME_SYSTEM><MEAN_ELEMENT_THEORY>SGP4</MEAN_ELEMENT_THEORY></metadata><data><meanElements><EPOCH>2025-07-23T19:50:30.673824</EPOCH><MEAN_MOTION>15.36958437</MEAN_MOTION><ECCENTRICITY>.0005074</ECCENTRICITY><INCLINATION>51.8692</INCLINATION><RA_OF_ASC_NODE>43.3556</RA_OF_ASC_NODE><ARG_OF_PERICENTER>69.0666</ARG_OF_PERICENTER><MEAN_ANOMALY>291.0863</MEAN_ANOMALY></meanElements><tleParameters><EPHEMERIS_TYPE>0</EPHEMERIS_TYPE><CLASSIFICATION_TYPE>U</CLASSIFICATION_TYPE><NORAD_CAT_ID>63742</NORAD_CAT_ID><ELEMENT_SET_NO>999</ELEMENT_SET_NO><REV_AT_EPOCH>1344</REV_AT_EPOCH><BSTAR>.46405E-3</BSTAR><MEAN_MOTION_DOT>.16688E-3</MEAN_MOTION_DOT><MEAN_MOTION_DDOT>0</MEAN_MOTION_DDOT></tleParameters></data></segment></body></omm>
<omm id="CCSDS_OMM_VERS" version="2.0">
<header><CREATION_DATE/><ORIGINATOR/></header><body><segment><metadata><OBJECT_NAME>KUIPER-00030</OBJECT_NAME><OBJECT_ID>2025-088V</OBJECT_ID><CENTER_NAME>EARTH</CENTER_NAME><REF_FRAME>TEME</REF_FRAME><TIME_SYSTEM>UTC</TIME_SYSTEM><MEAN_ELEMENT_THEORY>SGP4</MEAN_ELEMENT_THEORY></metadata><data><meanElements><EPOCH>2025-07-23T22:00:01.999584</EPOCH><MEAN_MOTION>15.13432987</MEAN_MOTION><ECCENTRICITY>.0012808</ECCENTRICITY><INCLINATION>51.8859</INCLINATION><RA_OF_ASC_NODE>46.2281</RA_OF_ASC_NODE><ARG_OF_PERICENTER>46.5925</ARG_OF_PERICENTER><MEAN_ANOMALY>309.1965</MEAN_ANOMALY></meanElements><tleParameters><EPHEMERIS_TYPE>0</EPHEMERIS_TYPE><CLASSIFICATION_TYPE>U</CLASSIFICATION_TYPE><NORAD_CAT_ID>63743</NORAD_CAT_ID><ELEMENT_SET_NO>999</ELEMENT_SET_NO><REV_AT_EPOCH>465</REV_AT_EPOCH><BSTAR>-.47778E-1</BSTAR><MEAN_MOTION_DOT>-.801218E-2</MEAN_MOTION_DOT><MEAN_MOTION_DDOT>0</MEAN_MOTION_DDOT></tleParameters></data></segment></body></omm>
<omm id="CCSDS_OMM_VERS" version="2.0">
<header><CREATION_DATE/><ORIGINATOR/></header><body><segment><metadata><OBJECT_NAME>KUIPER-00031</OBJECT_NAME><OBJECT_ID>2025-088W</OBJECT_ID><CENTER_NAME>EARTH</CENTER_NAME><REF_FRAME>TEME</REF_FRAME><TIME_SYSTEM>UTC</TIME_SYSTEM><MEAN_ELEMENT_THEORY>SGP4</MEAN_ELEMENT_THEORY></metadata><data><meanElements><EPOCH>2025-07-23T22:14:38.790240</EPOCH><MEAN_MOTION>15.37675534</MEAN_MOTION><ECCENTRICITY>.0004199</ECCENTRICITY><INCLINATION>51.8707</INCLINATION><RA_OF_ASC_NODE>42.5372</RA_OF_ASC_NODE><ARG_OF_PERICENTER>64.7583</ARG_OF_PERICENTER><MEAN_ANOMALY>295.3838</MEAN_ANOMALY></meanElements><tleParameters><EPHEMERIS_TYPE>0</EPHEMERIS_TYPE><CLASSIFICATION_TYPE>U</CLASSIFICATION_TYPE><NORAD_CAT_ID>63744</NORAD_CAT_ID><ELEMENT_SET_NO>999</ELEMENT_SET_NO><REV_AT_EPOCH>1346</REV_AT_EPOCH><BSTAR>.41977E-3</BSTAR><MEAN_MOTION_DOT>.15414E-3</MEAN_MOTION_DOT><MEAN_MOTION_DDOT>0</MEAN_MOTION_DDOT></tleParameters></data></segment></body></omm>
<omm id="CCSDS_OMM_VERS" version="2.0">
<header><CREATION_DATE/><ORIGINATOR/></header><body><segment><metadata><OBJECT_NAME>KUIPER-00032</OBJECT_NAME><OBJECT_ID>2025-088X</OBJECT_ID><CENTER_NAME>EARTH</CENTER_NAME><REF_FRAME>TEME</REF_FRAME><TIME_SYSTEM>UTC</TIME_SYSTEM><MEAN_ELEMENT_THEORY>SGP4</MEAN_ELEMENT_THEORY></metadata><data><meanElements><EPOCH>2025-07-23T22:37:56.108928</EPOCH><MEAN_MOTION>15.37444161</MEAN_MOTION><ECCENTRICITY>.0004815</ECCENTRICITY><INCLINATION>51.8701</INCLINATION><RA_OF_ASC_NODE>42.6337</RA_OF_ASC_NODE><ARG_OF_PERICENTER>53.7818</ARG_OF_PERICENTER><MEAN_ANOMALY>306.3613</MEAN_ANOMALY></meanElements><tleParameters><EPHEMERIS_TYPE>0</EPHEMERIS_TYPE><CLASSIFICATION_TYPE>U</CLASSIFICATION_TYPE><NORAD_CAT_ID>63745</NORAD_CAT_ID><ELEMENT_SET_NO>999</ELEMENT_SET_NO><REV_AT_EPOCH>1446</REV_AT_EPOCH><BSTAR>.50688E-3</BSTAR><MEAN_MOTION_DOT>.18562E-3</MEAN_MOTION_DOT><MEAN_MOTION_DDOT>0</MEAN_MOTION_DDOT></tleParameters></data></segment></body></omm>
<omm id="CCSDS_OMM_VERS" version="2.0">
<header><CREATION_DATE/><ORIGINATOR/></header><body><segment><metadata><OBJECT_NAME>KUIPER-00033</OBJECT_NAME><OBJECT_ID>2025-088Y</OBJECT_ID><CENTER_NAME>EARTH</CENTER_NAME><REF_FRAME>TEME</REF_FRAME><TIME_SYSTEM>UTC</TIME_SYSTEM><MEAN_ELEMENT_THEORY>SGP4</MEAN_ELEMENT_THEORY></metadata><data><meanElements><EPOCH>2025-07-23T21:41:14.161632</EPOCH><MEAN_MOTION>14.79790654</MEAN_MOTION><ECCENTRICITY>.0003399</ECCENTRICITY><INCLINATION>51.9013</INCLINATION><RA_OF_ASC_NODE>58.2876</RA_OF_ASC_NODE><ARG_OF_PERICENTER>128.2611</ARG_OF_PERICENTER><MEAN_ANOMALY>231.8658</MEAN_ANOMALY></meanElements><tleParameters><EPHEMERIS_TYPE>0</EPHEMERIS_TYPE><CLASSIFICATION_TYPE>U</CLASSIFICATION_TYPE><NORAD_CAT_ID>63746</NORAD_CAT_ID><ELEMENT_SET_NO>999</ELEMENT_SET_NO><REV_AT_EPOCH>1372</REV_AT_EPOCH><BSTAR>.29744E-3</BSTAR><MEAN_MOTION_DOT>.2039E-4</MEAN_MOTION_DOT><MEAN_MOTION_DDOT>0</MEAN_MOTION_DDOT></tleParameters></data></segment></body></omm>
<omm id="CCSDS_OMM_VERS" version="2.0">
<header><CREATION_DATE/><ORIGINATOR/></header><body><segment><metadata><OBJECT_NAME>KUIPER-00034</OBJECT_NAME><OBJECT_ID>2025-088Z</OBJECT_ID><CENTER_NAME>EARTH</CENTER_NAME><REF_FRAME>TEME</REF_FRAME><TIME_SYSTEM>UTC</TIME_SYSTEM><MEAN_ELEMENT_THEORY>SGP4</MEAN_ELEMENT_THEORY></metadata><data><meanElements><EPOCH>2025-07-23T20:14:25.976544</EPOCH><MEAN_MOTION>15.37804298</MEAN_MOTION><ECCENTRICITY>.0002252</ECCENTRICITY><INCLINATION>51.8716</INCLINATION><RA_OF_ASC_NODE>42.7388</RA_OF_ASC_NODE><ARG_OF_PERICENTER>83.0284</ARG_OF_PERICENTER><MEAN_ANOMALY>277.0959</MEAN_ANOMALY></meanElements><tleParameters><EPHEMERIS_TYPE>0</EPHEMERIS_TYPE><CLASSIFICATION_TYPE>U</CLASSIFICATION_TYPE><NORAD_CAT_ID>63747</NORAD_CAT_ID><ELEMENT_SET_NO>999</ELEMENT_SET_NO><REV_AT_EPOCH>1361</REV_AT_EPOCH><BSTAR>.433E-3</BSTAR><MEAN_MOTION_DOT>.15979E-3</MEAN_MOTION_DOT><MEAN_MOTION_DDOT>0</MEAN_MOTION_DDOT></tleParameters></data></segment></body></omm>

</ndm>
